STARLINK-4552           
1 53420U 22097AJ  26068.54034596 -.00000169  00000+0  74600-5 0  9990
2 53420  53.2159 114.7924 0001207  83.9383 276.1747 15.08836131198607
CSC-1                   
1 58022U 23155G   26068.74030489  .00008819  00000+0  54557-3 0  9994
2 58022  97.5446 139.7305 0007504 212.9992 147.0770 15.10035960132723
